[
    {
        "Altitude(m)": 553763.0382728702,
        "Argument of Periapsis(deg)": 0.033114955553567506,
        "Eccentricity": 0.0,
        "Inclination(deg)": 53.0,
        "Latitude(deg)": 4.636631462582148,
        "Longitude(deg)": 32.527723237782176,
        "Mean Anomaly(deg)": -185.9055356621121,
        "RAAN(deg)": 319.9507168426401,
        "Satellite Name": "Starlink Shell 1 1415",
        "Satellite Number": 1415,
        "Semi-Major Axis(m)": 6931778.249405717,
        "Time(s)": 950
    },
    {
        "Altitude(m)": 553803.915539522,
        "Argument of Periapsis(deg)": 0.03346353403307874,
        "Eccentricity": 0.0,
        "Inclination(deg)": 53.0,
        "Latitude(deg)": 4.133480560635687,
        "Longitude(deg)": 32.865348464928296,
        "Mean Anomaly(deg)": -185.27870445855538,
        "RAAN(deg)": 319.9501980725626,
        "Satellite Name": "Starlink Shell 1 1415",
        "Satellite Number": 1415,
        "Semi-Major Axis(m)": 6931778.249405717,
        "Time(s)": 960
    },
    {
        "Altitude(m)": 553847.6089447795,
        "Argument of Periapsis(deg)": 0.03381211251258998,
        "Eccentricity": 0.0,
        "Inclination(deg)": 53.0,
        "Latitude(deg)": 3.630150168319368,
        "Longitude(deg)": 33.20249065010365,
        "Mean Anomaly(deg)": -184.6518732549986,
        "RAAN(deg)": 319.9496793024851,
        "Satellite Name": "Starlink Shell 1 1415",
        "Satellite Number": 1415,
        "Semi-Major Axis(m)": 6931778.249405717,
        "Time(s)": 970
    },
    {
        "Altitude(m)": 553894.1209226791,
        "Argument of Periapsis(deg)": 0.034160690992101214,
        "Eccentricity": 0.0,
        "Inclination(deg)": 53.0,
        "Latitude(deg)": 3.1266635557418803,
        "Longitude(deg)": 33.539208110748774,
        "Mean Anomaly(deg)": -184.02504205144191,
        "RAAN(deg)": 319.94916053240763,
        "Satellite Name": "Starlink Shell 1 1415",
        "Satellite Number": 1415,
        "Semi-Major Axis(m)": 6931778.249405717,
        "Time(s)": 980
    },
    {
        "Altitude(m)": 553943.4525610618,
        "Argument of Periapsis(deg)": 0.034509269471612446,
        "Eccentricity": 0.0,
        "Inclination(deg)": 53.0,
        "Latitude(deg)": 2.623043904325757,
        "Longitude(deg)": 33.87555948055515,
        "Mean Anomaly(deg)": -183.3982108478852,
        "RAAN(deg)": 319.9486417623302,
        "Satellite Name": "Starlink Shell 1 1415",
        "Satellite Number": 1415,
        "Semi-Major Axis(m)": 6931778.249405717,
        "Time(s)": 990
    }
]